[{"OBJECT_NAME":"NUSAT-49 (KLARA DAN VON NEUMANN)","OBJECT_ID":"2024-149AJ","EPOCH":"2026-03-09T19:09:16.004160","MEAN_MOTION":15.30828857,"ECCENTRICITY":0.00011321,"INCLINATION":97.3807,"RA_OF_ASC_NODE":150.738,"ARG_OF_PERICENTER":286.7761,"MEAN_ANOMALY":73.3356,"EPHEMERIS_TYPE":0,"CLASSIFICATION_TYPE":"U","NORAD_CAT_ID":60500,"ELEMENT_SET_NO":999,"REV_AT_EPOCH":8693,"BSTAR":0.00043568345,"MEAN_MOTION_DOT":0.00012912,"MEAN_MOTION_DDOT":0},{"OBJECT_NAME":"STARLINK-34556","OBJECT_ID":"2025-144K","EPOCH":"2026-03-09T14:32:12.916320","MEAN_MOTION":15.30186212,"ECCENTRICITY":0.0001042,"INCLINATION":53.1582,"RA_OF_ASC_NODE":178.9709,"ARG_OF_PERICENTER":74.0214,"MEAN_ANOMALY":286.0901,"EPHEMERIS_TYPE":0,"CLASSIFICATION_TYPE":"U","NORAD_CAT_ID":64733,"ELEMENT_SET_NO":999,"REV_AT_EPOCH":3973,"BSTAR":0.0012696,"MEAN_MOTION_DOT":0.00037417,"MEAN_MOTION_DDOT":0}]
