NUSAT-49 (KLARA DAN VO*)
1 60500U 24149AJ  26068.79810190  .00012912  00000+0  43568-3 0  9991
2 60500  97.3807 150.7380 0001132 286.7761  73.3356 15.30828857 86935
STARLINK-34556          
1 64733U 25144K   26068.60570505  .00037417  00000+0  12696-2 0  9996
2 64733  53.1582 178.9709 0001042  74.0214 286.0901 15.30186212 39732
